IRIDIUM 117 [+]         
1 42808U 17039F   17346.16832301  .00000081  00000-0  21817-4 0  9999
2 42808  86.3992 212.8016 0002712  77.7731 282.3769 14.34217541 24369
